{"type": "FeatureCollection", "features": [ {"type": "Feature", "properties": {"norad_id": 52912, "name": "GAOFEN-12 03", "group": "resource", "lat": -37.604047236955815, "lon": 55.92187589196465, "alt_km": 638.2718764097835, "timestamp": "2025-12-20T20:38:44.101961+00:00", "meta": {"OBJECT_NAME": "GAOFEN-12 03", "OBJECT_ID": "2022-069A", "EPOCH": "2025-12-20T14:47:40.919712", "MEAN_MOTION": 14.79625807, "ECCENTRICITY": 0.00019841, "INCLINATION": 97.849, "RA_OF_ASC_NODE": 241.7829, "ARG_OF_PERICENTER": 53.2721, "MEAN_ANOMALY": 306.8673, "EPHEMERIS_TYPE": 0, "CLASSIFICATION_TYPE": "U", "NORAD_CAT_ID": 52912, "ELEMENT_SET_NO": 999, "REV_AT_EPOCH": 18820, "BSTAR": 8.0862506e-05, "MEAN_MOTION_DOT": 5.55e-06, "MEAN_MOTION_DDOT": 0}, "tle": {"line1": "1 52912U 22069A   25354.61644583  .00000555  00000+0  80863-4 0  9997", "line2": "2 52912  97.8490 241.7829 0001984  53.2721 306.8673 14.79625807188204"}}, "geometry": {"type": "Point", "coordinates": [55.92187589196465, -37.604047236955815]}}, {"type": "Feature", "properties": {"norad_id": 54754, "name": "SWOT", "group": "resource", "lat": 36.4083294541812, "lon": -74.64280284247685, "alt_km": 890.3006532174431, "timestamp": "2025-12-20T20:38:44.101972+00:00", "meta": {"OBJECT_NAME": "SWOT", "OBJECT_ID": "2022-173A", "EPOCH": "2025-12-20T13:36:28.203840", "MEAN_MOTION": 14.00167956, "ECCENTRICITY": 3.529e-05, "INCLINATION": 77.6109, "RA_OF_ASC_NODE": 276.424, "ARG_OF_PERICENTER": 90.9889, "MEAN_ANOMALY": 269.1303, "EPHEMERIS_TYPE": 0, "CLASSIFICATION_TYPE": "U", "NORAD_CAT_ID": 54754, "ELEMENT_SET_NO": 999, "REV_AT_EPOCH": 15415, "BSTAR": 1.0601075e-05, "MEAN_MOTION_DOT": 1.3e-07, "MEAN_MOTION_DDOT": 0}, "tle": {"line1": "1 54754U 22173A   25354.56699310  .00000013  00000+0  10601-4 0  9993", "line2": "2 54754  77.6109 276.4240 0000352  90.9889 269.1303 14.00167956154154"}}, "geometry": {"type": "Point", "coordinates": [-74.64280284247685, 36.4083294541812]}}, {"type": "Feature", "properties": {"norad_id": 57654, "name": "GAOFEN-12 04", "group": "resource", "lat": 29.852135394125483, "lon": -94.08390500663015, "alt_km": 628.133088605241, "timestamp": "2025-12-20T20:38:44.101982+00:00", "meta": {"OBJECT_NAME": "GAOFEN-12 04", "OBJECT_ID": "2023-123A", "EPOCH": "2025-12-20T15:38:27.408768", "MEAN_MOTION": 14.79720517, "ECCENTRICITY": 0.00012273, "INCLINATION": 97.9127, "RA_OF_ASC_NODE": 270.289, "ARG_OF_PERICENTER": 77.4652, "MEAN_ANOMALY": 282.6697, "EPHEMERIS_TYPE": 0, "CLASSIFICATION_TYPE": "U", "NORAD_CAT_ID": 57654, "ELEMENT_SET_NO": 999, "REV_AT_EPOCH": 12622, "BSTAR": 0.0001250866, "MEAN_MOTION_DOT": 8.88e-06, "MEAN_MOTION_DDOT": 0}, "tle": {"line1": "1 57654U 23123A   25354.65170612  .00000888  00000+0  12509-3 0  9998", "line2": "2 57654  97.9127 270.2890 0001227  77.4652 282.6697 14.79720517126221"}}, "geometry": {"type": "Point", "coordinates": [-94.08390500663015, 29.852135394125483]}}, {"type": "Feature", "properties": {"norad_id": 59065, "name": "PARS 1", "group": "resource", "lat": 56.769266251664845, "lon": -45.57797230395471, "alt_km": 429.24491541444604, "timestamp": "2025-12-20T20:38:44.101992+00:00", "meta": {"OBJECT_NAME": "PARS 1", "OBJECT_ID": "2024-039Q", "EPOCH": "2025-12-20T14:09:51.152832", "MEAN_MOTION": 15.41139833, "ECCENTRICITY": 0.00120463, "INCLINATION": 97.4641, "RA_OF_ASC_NODE": 325.6901, "ARG_OF_PERICENTER": 48.4162, "MEAN_ANOMALY": 311.8115, "EPHEMERIS_TYPE": 0, "CLASSIFICATION_TYPE": "U", "NORAD_CAT_ID": 59065, "ELEMENT_SET_NO": 999, "REV_AT_EPOCH": 10109, "BSTAR": 0.00020245399, "MEAN_MOTION_DOT": 8.319e-05, "MEAN_MOTION_DDOT": 0}, "tle": {"line1": "1 59065U 24039Q   25354.59017538  .00008319  00000+0  20245-3 0  9996", "line2": "2 59065  97.4641 325.6901 0012046  48.4162 311.8115 15.41139833101091"}}, "geometry": {"type": "Point", "coordinates": [-45.57797230395471, 56.769266251664845]}}, {"type": "Feature", "properties": {"norad_id": 59371, "name": "RESURS-P 4", "group": "resource", "lat": -60.944841105373555, "lon": -45.718563234072725, "alt_km": 476.98851326049953, "timestamp": "2025-12-20T20:38:44.102002+00:00", "meta": {"OBJECT_NAME": "RESURS-P 4", "OBJECT_ID": "2024-061A", "EPOCH": "2025-12-20T14:38:42.309888", "MEAN_MOTION": 15.32142646, "ECCENTRICITY": 9.989e-05, "INCLINATION": 97.2557, "RA_OF_ASC_NODE": 300.779, "ARG_OF_PERICENTER": 62.07, "MEAN_ANOMALY": 298.0644, "EPHEMERIS_TYPE": 0, "CLASSIFICATION_TYPE": "U", "NORAD_CAT_ID": 59371, "ELEMENT_SET_NO": 999, "REV_AT_EPOCH": 9641, "BSTAR": 9.1916907e-05, "MEAN_MOTION_DOT": 2.776e-05, "MEAN_MOTION_DDOT": 0}, "tle": {"line1": "1 59371U 24061A   25354.61021192  .00002776  00000+0  91917-4 0  9991", "line2": "2 59371  97.2557 300.7790 0000998  62.0700 298.0644 15.32142646 96416"}}, "geometry": {"type": "Point", "coordinates": [-45.718563234072725, -60.944841105373555]}}, {"type": "Feature", "properties": {"norad_id": 59625, "name": "LEGION 1", "group": "resource", "lat": 66.99095863946978, "lon": 51.30391274323026, "alt_km": 511.87481808953817, "timestamp": "2025-12-20T20:38:44.102012+00:00", "meta": {"OBJECT_NAME": "LEGION 1", "OBJECT_ID": "2024-081A", "EPOCH": "2025-12-20T12:25:41.437344", "MEAN_MOTION": 15.16549324, "ECCENTRICITY": 0.00036297, "INCLINATION": 97.5208, "RA_OF_ASC_NODE": 69.0902, "ARG_OF_PERICENTER": 282.0311, "MEAN_ANOMALY": 78.0515, "EPHEMERIS_TYPE": 0, "CLASSIFICATION_TYPE": "U", "NORAD_CAT_ID": 59625, "ELEMENT_SET_NO": 999, "REV_AT_EPOCH": 9045, "BSTAR": 0.00015782886, "MEAN_MOTION_DOT": 3.011e-05, "MEAN_MOTION_DDOT": 0}, "tle": {"line1": "1 59625U 24081A   25354.51784071  .00003011  00000+0  15783-3 0  9995", "line2": "2 59625  97.5208  69.0902 0003629 282.0311  78.0515 15.16549324 90457"}}, "geometry": {"type": "Point", "coordinates": [51.30391274323026, 66.99095863946978]}}, {"type": "Feature", "properties": {"norad_id": 59626, "name": "LEGION 2", "group": "resource", "lat": -67.16778710650692, "lon": -128.77138680726296, "alt_km": 519.6766431267642, "timestamp": "2025-12-20T20:38:44.102021+00:00", "meta": {"OBJECT_NAME": "LEGION 2", "OBJECT_ID": "2024-081B", "EPOCH": "2025-12-20T11:38:08.938752", "MEAN_MOTION": 15.16563441, "ECCENTRICITY": 0.00056321, "INCLINATION": 97.5212, "RA_OF_ASC_NODE": 69.1453, "ARG_OF_PERICENTER": 259.8293, "MEAN_ANOMALY": 100.2305, "EPHEMERIS_TYPE": 0, "CLASSIFICATION_TYPE": "U", "NORAD_CAT_ID": 59626, "ELEMENT_SET_NO": 999, "REV_AT_EPOCH": 9045, "BSTAR": 0.0001956519, "MEAN_MOTION_DOT": 3.752e-05, "MEAN_MOTION_DDOT": 0}, "tle": {"line1": "1 59626U 24081B   25354.48482568  .00003752  00000+0  19565-3 0  9992", "line2": "2 59626  97.5212  69.1453 0005632 259.8293 100.2305 15.16563441 90453"}}, "geometry": {"type": "Point", "coordinates": [-128.77138680726296, -67.16778710650692]}}, {"type": "Feature", "properties": {"norad_id": 60182, "name": "ALOS-4 (DAICHI-4)", "group": "resource", "lat": -80.00817982368737, "lon": -142.63194061915146, "alt_km": 639.2592348962953, "timestamp": "2025-12-20T20:38:44.102031+00:00", "meta": {"OBJECT_NAME": "ALOS-4 (DAICHI-4)", "OBJECT_ID": "2024-123A", "EPOCH": "2025-12-20T12:57:49.238208", "MEAN_MOTION": 14.79476103, "ECCENTRICITY": 0.00013911, "INCLINATION": 97.9224, "RA_OF_ASC_NODE": 89.2761, "ARG_OF_PERICENTER": 101.5093, "MEAN_ANOMALY": 258.6275, "EPHEMERIS_TYPE": 0, "CLASSIFICATION_TYPE": "U", "NORAD_CAT_ID": 60182, "ELEMENT_SET_NO": 999, "REV_AT_EPOCH": 7946, "BSTAR": 0.00019094037, "MEAN_MOTION_DOT": 1.375e-05, "MEAN_MOTION_DDOT": 0}, "tle": {"line1": "1 60182U 24123A   25354.54015322  .00001375  00000+0  19094-3 0  9991", "line2": "2 60182  97.9224  89.2761 0001391 101.5093 258.6275 14.79476103 79461"}}, "geometry": {"type": "Point", "coordinates": [-142.63194061915146, -80.00817982368737]}}, {"type": "Feature", "properties": {"norad_id": 60452, "name": "LEGION 3", "group": "resource", "lat": -7.211681550863269, "lon": -100.67688697154833, "alt_km": 522.5259371186385, "timestamp": "2025-12-20T20:38:44.102042+00:00", "meta": {"OBJECT_NAME": "LEGION 3", "OBJECT_ID": "2024-146A", "EPOCH": "2025-12-20T11:12:02.797920", "MEAN_MOTION": 15.15836147, "ECCENTRICITY": 0.00156553, "INCLINATION": 45.002, "RA_OF_ASC_NODE": 268.7081, "ARG_OF_PERICENTER": 240.2627, "MEAN_ANOMALY": 119.6694, "EPHEMERIS_TYPE": 0, "CLASSIFICATION_TYPE": "U", "NORAD_CAT_ID": 60452, "ELEMENT_SET_NO": 999, "REV_AT_EPOCH": 7490, "BSTAR": 0.00017169112, "MEAN_MOTION_DOT": 3.081e-05, "MEAN_MOTION_DDOT": 0}, "tle": {"line1": "1 60452U 24146A   25354.46669905  .00003081  00000+0  17169-3 0  9996", "line2": "2 60452  45.0020 268.7081 0015655 240.2627 119.6694 15.15836147 74904"}}, "geometry": {"type": "Point", "coordinates": [-100.67688697154833, -7.211681550863269]}}, {"type": "Feature", "properties": {"norad_id": 60453, "name": "LEGION 4", "group": "resource", "lat": -8.372894483270166, "lon": -10.086145327930858, "alt_km": 513.2897675291642, "timestamp": "2025-12-20T20:38:44.102052+00:00", "meta": {"OBJECT_NAME": "LEGION 4", "OBJECT_ID": "2024-146B", "EPOCH": "2025-12-20T09:37:35.920416", "MEAN_MOTION": 15.15898192, "ECCENTRICITY": 0.0008728, "INCLINATION": 45.0393, "RA_OF_ASC_NODE": 0.8332, "ARG_OF_PERICENTER": 352.3062, "MEAN_ANOMALY": 7.7682, "EPHEMERIS_TYPE": 0, "CLASSIFICATION_TYPE": "U", "NORAD_CAT_ID": 60453, "ELEMENT_SET_NO": 999, "REV_AT_EPOCH": 7374, "BSTAR": 0.00019574392, "MEAN_MOTION_DOT": 3.551e-05, "MEAN_MOTION_DDOT": 0}, "tle": {"line1": "1 60453U 24146B   25354.40111019  .00003551  00000+0  19574-3 0  9993", "line2": "2 60453  45.0393   0.8332 0008728 352.3062   7.7682 15.15898192 73746"}}, "geometry": {"type": "Point", "coordinates": [-10.086145327930858, -8.372894483270166]}}]}